HRC MONOBLOCK CAMERA    
1 66052U 98067XR  26076.11873786  .00039682  00000+0  43154-3 0  9998
2 66052  51.6290  28.0146 0003834 127.1537 232.9808 15.63041663 23551
HTV-X1                  
1 66174U 25241A   26073.34423278  .00013268  00000+0  57087-3 0  9998
2 66174  51.6358  50.7100 0005741 187.4047 172.6847 15.22910160 21662
SZ-21 MODULE            
1 66515U 25246C   26075.63014367  .00032043  00000+0  27011-3 0  9997
2 66515  41.4745 160.6185 0000725 306.4076  53.6699 15.69116640 19161
SHENZHOU-22             
1 66645U 25272A   26076.26557602  .00021102  00000+0  24646-3 0  9999
2 66645  41.4671 162.0513 0006150 318.9181  41.1194 15.61083168267524
SOYUZ-MS 28             
1 66664U 25275A   26076.19332186  .00012290  00000+0  23614-3 0  9995
2 66664  51.6337  35.2624 0006226 201.0018 159.0715 15.48337753554520
DUPLEX                  
1 66906U 98067XS  26076.16232389  .00026558  00000+0  37023-3 0  9995
2 66906  51.6297  32.0587 0002872 144.1909 215.9276 15.56715573 16296
ISS OBJECT XT           
1 66907U 98067XT  26076.15474278  .00155646  00000+0  11555-2 0  9992
2 66907  51.6248  27.4856 0004898 129.1683 230.9750 15.71838586 16350
ISS OBJECT XU           
1 66908U 98067XU  26076.02515758  .00153187  00000+0  11325-2 0  9991
2 66908  51.6245  28.1163 0005124 129.6122 230.5329 15.71945163 16339
SILVERSAT               
1 66909U 98067XV  26076.13820547  .00197318  00000+0  12396-2 0  9992
2 66909  51.6238  26.6181 0005570 131.0135 229.1347 15.75587031 16368
ISS OBJECT XW           
1 66910U 98067XW  26076.08971333  .00141178  00000+0  10919-2 0  9990
2 66910  51.6242  27.7936 0005506 131.8340 228.3129 15.70910501 16344
ISS OBJECT XX           
1 66911U 98067XX  26076.11809003  .00257633  00000+0  13355-2 0  9990
2 66911  51.6215  25.7089 0007042 135.4242 224.7327 15.79712162 16364
ISS OBJECT XY           
1 66912U 98067XY  26076.11918077  .00076876  00000+0  75961-3 0  9993
2 66912  51.6277  29.5129 0003594 133.6570 226.4723 15.65191911 16314
